SKYSAT-C3               
1 41774U 16058E   26068.62273604  .00022562  00000+0  42801-3 0  9999
2 41774  96.9178 103.4969 0001707 108.8338 251.3099 15.48316313530689
STARLINK-1452           
1 45669U 20035N   26068.16305549  .00091550  00000+0  19010-2 0  9997
2 45669  53.0334  24.2429 0008007  52.8149 307.3586 15.44914586319289
